start=new Date('2022-09-17T00:00:00.000Z').valueOf();
sats=[{"REF_FRAME":"TEME","LAUNCH_DATE":"2021-05-09","GP_ID":"212747414","INCLINATION":"53.0533","EPHEMERIS_TYPE":"0","BSTAR":"0.00002984000000","COUNTRY_CODE":"US","EPOCH":"2022-09-16T18:14:39.532992","MEAN_MOTION":"15.06391541","FILE":"3575787","APOAPSIS":"548.249","MEAN_MOTION_DOT":"0.00000163","CLASSIFICATION_TYPE":"U","TLE_LINE2":"2 48468  53.0533 132.5656 0001458  64.5147 295.5992 15.06391541 75091","SITE":"AFETR","CENTER_NAME":"EARTH","OBJECT_NAME":"STARLINK-2685","RCS_SIZE":"LARGE","ELEMENT_SET_NO":"999","REV_AT_EPOCH":"7509","MEAN_MOTION_DDOT":"0.0000000000000","OBJECT_ID":"2021-040AS","NORAD_CAT_ID":"48468","MEAN_ANOMALY":"295.5992","PERIOD":"95.593","PERIAPSIS":"546.230","RA_OF_ASC_NODE":"132.5656","TIME_SYSTEM":"UTC","TLE_LINE1":"1 48468U 21040AS  22259.76017978  .00000163  00000-0  29840-4 0  9999","MEAN_ELEMENT_THEORY":"SGP4","OBJECT_TYPE":"PAYLOAD","DECAY_DATE":null,"SEMIMAJOR_AXIS":"6925.374","ARG_OF_PERICENTER":"64.5147","ECCENTRICITY":"0.00014580"},{"MEAN_ELEMENT_THEORY":"SGP4","ARG_OF_PERICENTER":"86.4668","ECCENTRICITY":"0.00013230","DECAY_DATE":null,"OBJECT_TYPE":"PAYLOAD","SEMIMAJOR_AXIS":"6925.374","RA_OF_ASC_NODE":"133.0804","TIME_SYSTEM":"UTC","PERIAPSIS":"546.322","TLE_LINE1":"1 48469U 21040AT  22259.64222493  .00001758  00000-0  13691-3 0  9994","REV_AT_EPOCH":"7507","MEAN_MOTION_DDOT":"0.0000000000000","NORAD_CAT_ID":"48469","PERIOD":"95.593","MEAN_ANOMALY":"273.6473","OBJECT_ID":"2021-040AT","ELEMENT_SET_NO":"999","RCS_SIZE":"LARGE","CLASSIFICATION_TYPE":"U","TLE_LINE2":"2 48469  53.0536 133.0804 0001323  86.4668 273.6473 15.06391804 75079","SITE":"AFETR","CENTER_NAME":"EARTH","OBJECT_NAME":"STARLINK-2661","APOAPSIS":"548.155","MEAN_MOTION_DOT":"0.00001758","COUNTRY_CODE":"US","MEAN_MOTION":"15.06391804","FILE":"3575787","EPOCH":"2022-09-16T15:24:48.233952","GP_ID":"212747664","REF_FRAME":"TEME","LAUNCH_DATE":"2021-05-09","EPHEMERIS_TYPE":"0","BSTAR":"0.00013691000000","INCLINATION":"53.0536"},{"REV_AT_EPOCH":"7507","MEAN_MOTION_DDOT":"0.0000000000000","OBJECT_ID":"2021-040AU","MEAN_ANOMALY":"291.5634","PERIOD":"95.592","NORAD_CAT_ID":"48470","RCS_SIZE":"LARGE","ELEMENT_SET_NO":"999","MEAN_ELEMENT_THEORY":"SGP4","OBJECT_TYPE":"PAYLOAD","DECAY_DATE":null,"SEMIMAJOR_AXIS":"6925.365","ARG_OF_PERICENTER":"68.5508","ECCENTRICITY":"0.00014300","PERIAPSIS":"546.239","RA_OF_ASC_NODE":"132.8005","TIME_SYSTEM":"UTC","TLE_LINE1":"1 48470U 21040AU  22259.70394492  .00000661  00000-0  63277-4 0  9990","COUNTRY_CODE":"US","EPOCH":"2022-09-16T16:53:40.841088","FILE":"3575787","MEAN_MOTION":"15.06394735","REF_FRAME":"TEME","LAUNCH_DATE":"2021-05-09","GP_ID":"212747916","INCLINATION":"53.0540","BSTAR":"0.00006327700000","EPHEMERIS_TYPE":"0","CLASSIFICATION_TYPE":"U","TLE_LINE2":"2 48470  53.0540 132.8005 0001430  68.5508 291.5634 15.06394735 75073","OBJECT_NAME":"STARLINK-2675","SITE":"AFETR","CENTER_NAME":"EARTH","APOAPSIS":"548.220","MEAN_MOTION_DOT":"0.00000661"},{"COUNTRY_CODE":"US","FILE":"3575787","MEAN_MOTION":"15.06403573","EPOCH":"2022-09-16T18:19:57.695808","GP_ID":"212748167","LAUNCH_DATE":"2021-05-09","REF_FRAME":"TEME","BSTAR":"0.00008702600000","EPHEMERIS_TYPE":"0","INCLINATION":"53.0538","CLASSIFICATION_TYPE":"U","TLE_LINE2":"2 48471  53.0538 132.5312 0001635  82.6560 277.4615 15.06403573 75085","SITE":"AFETR","CENTER_NAME":"EARTH","OBJECT_NAME":"STARLINK-2684","APOAPSIS":"548.335","MEAN_MOTION_DOT":"0.00001015","MEAN_MOTION_DDOT":"0.0000000000000","REV_AT_EPOCH":"7508","MEAN_ANOMALY":"277.4615","PERIOD":"95.592","NORAD_CAT_ID":"48471","OBJECT_ID":"2021-040AV","ELEMENT_SET_NO":"999","RCS_SIZE":"LARGE","MEAN_ELEMENT_THEORY":"SGP4","ARG_OF_PERICENTER":"82.6560","ECCENTRICITY":"0.00016350","DECAY_DATE":null,"SEMIMAJOR_AXIS":"6925.338","OBJECT_TYPE":"PAYLOAD","TIME_SYSTEM":"UTC","RA_OF_ASC_NODE":"132.5312","PERIAPSIS":"546.070","TLE_LINE1":"1 48471U 21040AV  22259.76386222  .00001015  00000-0  87026-4 0  9991"},{"CLASSIFICATION_TYPE":"U","CENTER_NAME":"EARTH","TLE_LINE2":"2 48472  53.0533 135.6079 0001539  73.0218 287.0940 15.06400224 74977","SITE":"AFETR","OBJECT_NAME":"STARLINK-2722","APOAPSIS":"548.279","MEAN_MOTION_DOT":"0.00002524","COUNTRY_CODE":"US","FILE":"3575604","MEAN_MOTION":"15.06400224","EPOCH":"2022-09-16T01:58:01.703424","GP_ID":"212718607","REF_FRAME":"TEME","LAUNCH_DATE":"2021-05-09","BSTAR":"0.00018829000000","EPHEMERIS_TYPE":"0","INCLINATION":"53.0533","MEAN_ELEMENT_THEORY":"SGP4","ARG_OF_PERICENTER":"73.0218","ECCENTRICITY":"0.00015390","SEMIMAJOR_AXIS":"6925.348","DECAY_DATE":null,"OBJECT_TYPE":"PAYLOAD","RA_OF_ASC_NODE":"135.6079","TIME_SYSTEM":"UTC","PERIAPSIS":"546.147","TLE_LINE1":"1 48472U 21040AW  22259.08196416  .00002524  00000-0  18829-3 0  9991","MEAN_MOTION_DDOT":"0.0000000000000","REV_AT_EPOCH":"7497","PERIOD":"95.592","MEAN_ANOMALY":"287.0940","NORAD_CAT_ID":"48472","OBJECT_ID":"2021-040AW","ELEMENT_SET_NO":"999","RCS_SIZE":"LARGE"},{"OBJECT_NAME":"STARLINK-2658","TLE_LINE2":"2 48473  53.0528 132.1452 0001480  64.3897 295.7245 15.06392803 75091","SITE":"AFETR","CENTER_NAME":"EARTH","CLASSIFICATION_TYPE":"U","MEAN_MOTION_DOT":"0.00002953","APOAPSIS":"548.261","EPOCH":"2022-09-16T20:22:02.976384","MEAN_MOTION":"15.06392803","FILE":"3575787","COUNTRY_CODE":"US","INCLINATION":"53.0528","EPHEMERIS_TYPE":"0","BSTAR":"0.00021711000000","REF_FRAME":"TEME","LAUNCH_DATE":"2021-05-09","GP_ID":"212747165","DECAY_DATE":null,"OBJECT_TYPE":"PAYLOAD","SEMIMAJOR_AXIS":"6925.371","ECCENTRICITY":"0.00014800","ARG_OF_PERICENTER":"64.3897","MEAN_ELEMENT_THEORY":"SGP4","TLE_LINE1":"1 48473U 21040AX  22259.84864556  .00002953  00000-0  21711-3 0  9993","PERIAPSIS":"546.211","RA_OF_ASC_NODE":"132.1452","TIME_SYSTEM":"UTC","OBJECT_ID":"2021-040AX","NORAD_CAT_ID":"48473","MEAN_ANOMALY":"295.7245","PERIOD":"95.593","MEAN_MOTION_DDOT":"0.0000000000000","REV_AT_EPOCH":"7509","RCS_SIZE":"LARGE","ELEMENT_SET_NO":"999"},{"DECAY_DATE":null,"OBJECT_TYPE":"PAYLOAD","SEMIMAJOR_AXIS":"6925.386","ARG_OF_PERICENTER":"73.6792","ECCENTRICITY":"0.00015650","MEAN_ELEMENT_THEORY":"SGP4","TLE_LINE1":"1 48474U 21040AY  22259.35103667  .00001360  00000-0  11021-3 0  9993","PERIAPSIS":"546.167","TIME_SYSTEM":"UTC","RA_OF_ASC_NODE":"134.3957","OBJECT_ID":"2021-040AY","PERIOD":"95.593","MEAN_ANOMALY":"286.4369","NORAD_CAT_ID":"48474","REV_AT_EPOCH":"7501","MEAN_MOTION_DDOT":"0.0000000000000","RCS_SIZE":"LARGE","ELEMENT_SET_NO":"999","TLE_LINE2":"2 48474  53.0572 134.3957 0001565  73.6792 286.4369 15.06387734 75019","SITE":"AFETR","CENTER_NAME":"EARTH","OBJECT_NAME":"STARLINK-2697","CLASSIFICATION_TYPE":"U","MEAN_MOTION_DOT":"0.00001360","APOAPSIS":"548.335","EPOCH":"2022-09-16T08:25:29.568288","FILE":"3575604","MEAN_MOTION":"15.06387734","COUNTRY_CODE":"US","INCLINATION":"53.0572","BSTAR":"0.00011021000000","EPHEMERIS_TYPE":"0","REF_FRAME":"TEME","LAUNCH_DATE":"2021-05-09","GP_ID":"212717613"},{"CLASSIFICATION_TYPE":"U","TLE_LINE2":"2 48475  53.0542 132.1532 0001529  66.4730 293.6420 15.06389268 75094","SITE":"AFETR","OBJECT_NAME":"STARLINK-2619","CENTER_NAME":"EARTH","APOAPSIS":"548.305","MEAN_MOTION_DOT":"-0.00001470","COUNTRY_CODE":"US","FILE":"3575787","MEAN_MOTION":"15.06389268","EPOCH":"2022-09-16T20:27:21.336192","GP_ID":"212748667","REF_FRAME":"TEME","LAUNCH_DATE":"2021-05-09","BSTAR":"-0.00007980300000","EPHEMERIS_TYPE":"0","INCLINATION":"53.0542","MEAN_ELEMENT_THEORY":"SGP4","ARG_OF_PERICENTER":"66.4730","ECCENTRICITY":"0.00015290","SEMIMAJOR_AXIS":"6925.381","DECAY_DATE":null,"OBJECT_TYPE":"PAYLOAD","TIME_SYSTEM":"UTC","RA_OF_ASC_NODE":"132.1532","PERIAPSIS":"546.188","TLE_LINE1":"1 48475U 21040AZ  22259.85233028 -.00001470  00000-0 -79803-4 0  9991","REV_AT_EPOCH":"7509","MEAN_MOTION_DDOT":"0.0000000000000","PERIOD":"95.593","MEAN_ANOMALY":"293.6420","NORAD_CAT_ID":"48475","OBJECT_ID":"2021-040AZ","ELEMENT_SET_NO":"999","RCS_SIZE":"LARGE"},{"CLASSIFICATION_TYPE":"U","TLE_LINE2":"2 48476  53.0544 132.0380 0001352  70.0496 290.0638 15.06395957 76377","SITE":"AFETR","CENTER_NAME":"EARTH","OBJECT_NAME":"STARLINK-2723","APOAPSIS":"548.162","MEAN_MOTION_DOT":"-0.00000028","COUNTRY_CODE":"US","EPOCH":"2022-09-16T20:59:11.609952","FILE":"3575735","MEAN_MOTION":"15.06395957","REF_FRAME":"TEME","LAUNCH_DATE":"2021-05-09","GP_ID":"212725209","INCLINATION":"53.0544","BSTAR":"0.00001702400000","EPHEMERIS_TYPE":"0","MEAN_ELEMENT_THEORY":"SGP4","OBJECT_TYPE":"PAYLOAD","DECAY_DATE":null,"SEMIMAJOR_AXIS":"6925.361","ARG_OF_PERICENTER":"70.0496","ECCENTRICITY":"0.00013520","PERIAPSIS":"546.290","RA_OF_ASC_NODE":"132.0380","TIME_SYSTEM":"UTC","TLE_LINE1":"1 48476U 21040BA  22259.87443993 -.00000028  00000-0  17024-4 0  9992","REV_AT_EPOCH":"7637","MEAN_MOTION_DDOT":"0.0000000000000","OBJECT_ID":"2021-040BA","PERIOD":"95.592","MEAN_ANOMALY":"290.0638","NORAD_CAT_ID":"48476","RCS_SIZE":"LARGE","ELEMENT_SET_NO":"999"},{"MEAN_MOTION_DDOT":"0.0000000000000","REV_AT_EPOCH":"7569","NORAD_CAT_ID":"48478","PERIOD":"95.593","MEAN_ANOMALY":"304.3481","OBJECT_ID":"2021-040BC","ELEMENT_SET_NO":"999","RCS_SIZE":"LARGE","MEAN_ELEMENT_THEORY":"SGP4","ARG_OF_PERICENTER":"55.7655","ECCENTRICITY":"0.00015480","SEMIMAJOR_AXIS":"6925.385","DECAY_DATE":null,"OBJECT_TYPE":"PAYLOAD","TIME_SYSTEM":"UTC","RA_OF_ASC_NODE":"132.1158","PERIAPSIS":"546.178","TLE_LINE1":"1 48478U 02032DG  22259.85970187 -.00001418  00000-0 -76368-4 0  9993","COUNTRY_CODE":"US","MEAN_MOTION":"15.06388194","FILE":"3575735","EPOCH":"2022-09-16T20:37:58.241568","GP_ID":"212725210","LAUNCH_DATE":"2021-05-09","REF_FRAME":"TEME","EPHEMERIS_TYPE":"0","BSTAR":"-0.00007636800000","INCLINATION":"53.0524","CLASSIFICATION_TYPE":"U","TLE_LINE2":"2 48478  53.0524 132.1158 0001548  55.7655 304.3481 15.06388194 75699","SITE":"AFETR","CENTER_NAME":"EARTH","OBJECT_NAME":"STARLINK-2728","APOAPSIS":"548.322","MEAN_MOTION_DOT":"-0.00001418"}];
